NORAD_CAT_ID,OBJECT_NAME,OBJECT_TYPE,EPOCH,MEAN_MOTION,ECCENTRICITY,INCLINATION,RA_OF_ASC_NODE,ARG_OF_PERICENTER,MEAN_ANOMALY,BSTAR,MEAN_MOTION_DOT,MEAN_MOTION_DDOT,TLE_LINE0,TLE_LINE1,TLE_LINE2,SEMIMAJOR_AXIS,PERIOD,APOGEE,PERIGEE,DECAYED
53292.0,STARLINK-4159,PAYLOAD,2023-04-06 14:00:01,15.07202161,0.000129,53.2154,299.0616,91.0453,197.2221,0.0016552,0.00024999,0.0,0 STARLINK-4159,1 53292U 22086BC  23096.58335648  .00024999  00000-0  16552-2 0  9995,2 53292  53.2154 299.0616 0001290  91.0453 197.2221 15.07202161  1303,6922.891,95.541,545.649,543.863,0.0
53292.0,STARLINK-4159,PAYLOAD,2023-04-06 22:00:00,15.07209418,0.0001324,53.2146,297.5721,76.3757,221.4731,-0.0018245,-0.0002795,0.0,0 STARLINK-4159,1 53292U 22086BC  23096.91667824 -.00027950  00000-0 -18245-2 0  9999,2 53292  53.2146 297.5721 0001324  76.3757 221.4731 15.07209418 39832,6922.869,95.541,545.651,543.817,0.0
53292.0,STARLINK-4159,PAYLOAD,2023-04-07 14:00:01,15.07207761,0.0001263,53.2143,294.585,85.5247,231.5604,0.00086953,0.00012978,0.0,0 STARLINK-4159,1 53292U 22086BC  23097.58334491  .00012978  00000-0  86953-3 0  9998,2 53292  53.2143 294.5850 0001263  85.5247 231.5604 15.07207761 39938,6922.874,95.541,545.613,543.865,0.0
53292.0,STARLINK-4159,PAYLOAD,2023-04-08 06:00:00,15.07197652,0.0001212,53.2141,291.5997,81.8835,254.4593,-0.0005615,-8.818e-05,0.0,0 STARLINK-4159,1 53292U 22086BC  23098.25001157 -.00008818  00000-0 -56150-3 0  9999,2 53292  53.2141 291.5997 0001212  81.8835 254.4593 15.07197652 40032,6922.905,95.542,545.609,543.931,0.0
53292.0,STARLINK-4159,PAYLOAD,2023-04-08 14:00:01,15.07211018,0.0001247,53.2143,290.1067,88.6712,257.2843,0.00040802,5.934e-05,0.0,0 STARLINK-4159,1 53292U 22086BC  23098.58334491  .00005934  00000-0  40802-3 0  9996,2 53292  53.2143 290.1067 0001247  88.6712 257.2843 15.07211018  1303,6922.864,95.541,545.592,543.866,0.0
53292.0,STARLINK-4159,PAYLOAD,2023-04-08 22:00:00,15.07195073,0.0001263,53.2144,288.6156,78.9476,276.6526,0.00027851,3.957e-05,0.0,0 STARLINK-4159,1 53292U 22086BC  23098.91667824  .00003957  00000-0  27851-3 0  9994,2 53292  53.2144 288.6156 0001263  78.9476 276.6526 15.07195073 40131,6922.913,95.542,545.652,543.903,0.0
53292.0,STARLINK-4159,PAYLOAD,2023-04-09 05:58:39,15.07203108,0.0001405,53.2152,287.1279,71.4049,288.7095,0.00013684,1.8e-05,0.0,0 STARLINK-4159,1 53292U 22086BC  23099.24907224  .00001800  00000-0  13684-3 0  9996,2 53292  53.2152 287.1279 0001405  71.4049 288.7095 15.07203108 40349,6922.888,95.541,545.726,543.781,0.0
53292.0,STARLINK-4159,PAYLOAD,2023-04-09 18:42:34,15.07208019,0.0001259,53.2149,284.7509,80.4916,279.6218,0.00019423,2.675e-05,0.0,0 STARLINK-4159,1 53292U 22086BC  23099.77956630  .00002675  00000-0  19423-3 0  9997,2 53292  53.2149 284.7509 0001259  80.4916 279.6218 15.07208019 40425,6922.873,95.541,545.61,543.867,0.0
53292.0,STARLINK-4159,PAYLOAD,2023-04-10 05:50:59,15.07211572,0.0001212,53.2151,282.6721,81.0423,279.0706,0.00016034,2.159e-05,0.0,0 STARLINK-4159,1 53292U 22086BC  23100.24374795  .00002159  00000-0  16034-3 0  9990,2 53292  53.2151 282.6721 0001212  81.0423 279.0706 15.07211572 40334,6922.862,95.541,545.566,543.888,0.0
53292.0,STARLINK-4159,PAYLOAD,2023-04-10 15:23:55,15.07210778,0.0001261,53.2146,280.8902,84.6794,275.4341,0.00022288,3.111e-05,0.0,0 STARLINK-4159,1 53292U 22086BC  23100.64162006  .00003111  00000-0  22288-3 0  9991,2 53292  53.2146 280.8902 0001261  84.6794 275.4341 15.07210778 40559,6922.865,95.541,545.603,543.857,0.0
53292.0,STARLINK-4159,PAYLOAD,2023-04-11 12:05:17,15.07207381,0.0002139,53.2166,277.0361,71.9921,288.1303,0.00012721,1.653e-05,0.0,0 STARLINK-4159,1 53292U 22086BC  23101.50367544  .00001653  00000-0  12721-3 0  9991,2 53292  53.2166 277.0361 0002139  71.9921 288.1303 15.07207381 40526,6922.875,95.541,546.221,543.259,0.0
53292.0,STARLINK-4159,PAYLOAD,2023-04-11 18:27:14,15.07209193,0.000131,53.2149,275.8429,93.7168,266.3973,0.00013177,1.723e-05,0.0,0 STARLINK-4159,1 53292U 22086BC  23101.76892150  .00001723  00000-0  13177-3 0  9999,2 53292  53.2149 275.8429 0001310  93.7168 266.3973 15.07209193 40729,6922.87,95.541,545.642,543.828,0.0
53292.0,STARLINK-4159,PAYLOAD,2023-04-12 04:00:11,15.07196337,0.0001885,53.2148,274.0612,79.2546,280.8658,-0.00012596,-2.2e-05,0.0,0 STARLINK-4159,1 53292U 22086BC  23102.16679894 -.00002200  00000-0 -12596-3 0  9999,2 53292  53.2148 274.0612 0001885  79.2546 280.8658 15.07196337 40624,6922.909,95.542,546.079,543.469,0.0
53292.0,STARLINK-4159,PAYLOAD,2023-04-12 10:22:08,15.07198056,7.82e-05,53.2148,272.8745,96.063,264.0451,-9.3704e-05,-1.709e-05,0.0,0 STARLINK-4159,1 53292U 22086BC  23102.43204378 -.00001709  00000-0 -93704-4 0  9994,2 53292  53.2148 272.8745 0000782  96.0630 264.0451 15.07198056 40820,6922.904,95.542,545.31,544.227,0.0
53292.0,STARLINK-4159,PAYLOAD,2023-04-13 10:14:28,15.07211153,0.000108,53.2157,268.419,81.1106,279.0007,0.00035259,5.089e-05,0.0,0 STARLINK-4159,1 53292U 22086BC  23103.42672300  .00005089  00000-0  35259-3 0  9991,2 53292  53.2157 268.4190 0001080  81.1106 279.0007 15.07211153 40973,6922.864,95.541,545.476,543.981,0.0
53292.0,STARLINK-4159,PAYLOAD,2023-04-14 10:06:49,15.0720898,0.0001137,53.2155,263.9649,65.6322,294.4788,0.00016955,2.299e-05,0.0,0 STARLINK-4159,1 53292U 22086BC  23104.42140069  .00002299  00000-0  16955-3 0  9996,2 53292  53.2155 263.9649 0001137  65.6322 294.4788 15.07208980 41129,6922.87,95.541,545.522,543.948,0.0
53292.0,STARLINK-4159,PAYLOAD,2023-04-15 09:59:09,15.07203285,0.0001754,53.2142,259.5107,80.3886,279.7304,0.00019388,2.669e-05,0.0,0 STARLINK-4159,1 53292U 22086BC  23105.41608176  .00002669  00000-0  19388-3 0  9998,2 53292  53.2142 259.5107 0001754  80.3886 279.7304 15.07203285 41111,6922.888,95.541,545.967,543.538,0.0
53292.0,STARLINK-4159,PAYLOAD,2023-04-15 19:32:05,15.07214398,0.0001022,53.2148,257.7275,77.7584,282.3522,0.00036794,5.323e-05,0.0,0 STARLINK-4159,1 53292U 22086BC  23105.81394971  .00005323  00000-0  36794-3 0  9997,2 53292  53.2148 257.7275 0001022  77.7584 282.3522 15.07214398 41339,6922.854,95.54,545.426,544.011,0.0
53292.0,STARLINK-4159,PAYLOAD,2023-04-16 09:51:29,15.07210058,0.0001371,53.2127,255.0569,81.5133,278.6014,0.00031323,4.488e-05,0.0,0 STARLINK-4159,1 53292U 22086BC  23106.41075932  .00004488  00000-0  31323-3 0  9991,2 53292  53.2127 255.0569 0001371  81.5133 278.6014 15.07210058 41426,6922.867,95.541,545.681,543.783,0.0
53292.0,STARLINK-4159,PAYLOAD,2023-04-16 19:24:25,15.07221285,0.0001176,53.2138,253.2742,84.7941,275.3185,0.00050025,7.343e-05,0.0,0 STARLINK-4159,1 53292U 22086BC  23106.80862544  .00007343  00000-0  50025-3 0  9990,2 53292  53.2138 253.2742 0001176  84.7941 275.3185 15.07221285 41322,6922.833,95.54,545.512,543.883,0.0
53292.0,STARLINK-4159,PAYLOAD,2023-04-17 03:21:52,15.07212132,0.0001286,53.2142,251.791,72.8889,287.2243,0.00031301,4.485e-05,0.0,0 STARLINK-4159,1 53292U 22086BC  23107.14018796  .00004485  00000-0  31301-3 0  9990,2 53292  53.2142 251.7910 0001286  72.8889 287.2243 15.07212132 41371,6922.861,95.541,545.616,543.835,0.0
53292.0,STARLINK-4159,PAYLOAD,2023-04-17 09:43:49,15.07211651,0.000135,53.2135,250.6027,80.9324,279.182,0.00022822,3.193e-05,0.0,0 STARLINK-4159,1 53292U 22086BC  23107.40543491  .00003193  00000-0  22822-3 0  9997,2 53292  53.2135 250.6027 0001350  80.9324 279.1820 15.07211651 41574,6922.862,95.541,545.662,543.792,0.0
53292.0,STARLINK-4159,PAYLOAD,2023-04-17 16:05:46,15.07214494,9.74e-05,53.2146,249.4156,80.6938,279.4163,0.00035754,5.165e-05,0.0,0 STARLINK-4159,1 53292U 22086BC  23107.67068041  .00005165  00000-0  35754-3 0  9998,2 53292  53.2146 249.4156 0000974  80.6938 279.4163 15.07214494 41610,6922.853,95.54,545.393,544.044,0.0
53292.0,STARLINK-4159,PAYLOAD,2023-04-18 09:36:09,15.07205558,6.07e-05,53.2145,246.1476,26.3261,333.7761,0.00026044,3.683e-05,0.0,0 STARLINK-4159,1 53292U 22086BC  23108.40011545  .00003683  00000-0  26044-3 0  9992,2 53292  53.2145 246.1476 0000607  26.3261 333.7761 15.07205558 41560,6922.881,95.541,545.166,544.326,0.0
53292.0,STARLINK-4159,PAYLOAD,2023-04-18 15:58:07,15.07204261,0.0001069,53.2147,244.9595,90.4614,269.65,0.00020832,2.889e-05,0.0,0 STARLINK-4159,1 53292U 22086BC  23108.66536315  .00002889  00000-0  20832-3 0  9993,2 53292  53.2147 244.9595 0001069  90.4614 269.6500 15.07204261 41767,6922.885,95.541,545.49,544.01,0.0
53292.0,STARLINK-4159,PAYLOAD,2023-04-19 09:28:30,15.07211537,0.0001232,53.2161,241.6938,96.5565,263.5566,0.00042444,6.184e-05,0.0,0 STARLINK-4159,1 53292U 22086BC  23109.39479342  .00006184  00000-0  42444-3 0  9995,2 53292  53.2161 241.6938 0001232  96.5565 263.5566 15.07211537 41873,6922.862,95.541,545.58,543.875,0.0
53292.0,STARLINK-4159,PAYLOAD,2023-04-19 14:14:57,15.0722891,7.38e-05,53.2147,240.8046,72.9602,287.1471,0.00074245,0.00011043,0.0,0 STARLINK-4159,1 53292U 22086BC  23109.59372266  .00011043  00000-0  74245-3 0  9998,2 53292  53.2147 240.8046 0000738  72.9602 287.1471 15.07228910 41902,6922.809,95.54,545.185,544.163,0.0
53292.0,STARLINK-4159,PAYLOAD,2023-04-20 01:23:11,15.07537025,4.66e-05,53.2147,238.7249,90.0023,270.1022,0.0071992,0.0011206,0.0,0 STARLINK-4159,1 53292U 22086BC  23110.05777168  .00112060  00000-0  71992-2 0  9997,2 53292  53.2147 238.7249 0000466  90.0023 270.1022 15.07537025 41813,6921.866,95.52,544.053,543.408,0.0
53292.0,STARLINK-4159,PAYLOAD,2023-04-20 09:20:25,15.07732805,0.0001794,53.2158,237.238,111.4908,248.6275,0.0095379,0.00150157,0.0,0 STARLINK-4159,1 53292U 22086BC  23110.38918941  .00150157  00000-0  95379-2 0  9993,2 53292  53.2158 237.2380 0001794 111.4908 248.6275 15.07732805 42027,6921.267,95.508,544.373,541.89,0.0
53292.0,STARLINK-4159,PAYLOAD,2023-04-20 12:31:18,15.07819515,0.000128,53.2158,236.6434,113.7671,246.3455,0.010404,0.0016454,0.0,0 STARLINK-4159,1 53292U 22086BC  23110.52174084  .00164540  00000-0  10404-1 0  9997,2 53292  53.2158 236.6434 0001280 113.7671 246.3455 15.07819515 41884,6921.001,95.502,543.752,541.98,0.0
